ONEWEB-0721             
1 56725U 23068R   26185.69281054  .00000010  00000+0 -10208-4 0  9997
2 56725  86.6756  79.9288 0001787  78.4027 281.7307 13.22470483160255
ONEWEB-0015             
1 61594U 24188A   26185.78141864 -.00000290  00000+0 -85513-3 0  9996
2 61594  87.8874  17.5893 0001778  71.2368 288.8953 13.11414943 86763
ONEWEB-0687             
1 61595U 24188B   26185.77203924  .00000092  00000+0  20348-3 0  9995
2 61595  87.9129   2.3769 0002177  79.6478 280.4899 13.17649647 88216
ONEWEB-0688             
1 61596U 24188C   26185.72478277  .00000007  00000+0 -14337-4 0  9995
2 61596  87.9131   2.3861 0001823  51.6993 308.4303 13.17649979 88200
ONEWEB-0689             
1 61597U 24188D   26185.81533354  .00000186  00000+0  48879-3 0  9998
2 61597  87.8894  17.5432 0002124  87.2750 272.8621 13.11417849 86768
ONEWEB-0690             
1 61598U 24188E   26185.82551564  .00000573  00000+0  15806-2 0  9996
2 61598  87.8890  17.5519 0001298 101.5645 258.5629 13.11417067 86946
ONEWEB-0691             
1 61599U 24188F   26185.82042519  .00000357  00000+0  97024-3 0  9995
2 61599  87.8901  17.4634 0001873  76.7410 283.3927 13.11416568 86794
ONEWEB-0692             
1 61600U 24188G   26185.76447683  .00000407  00000+0  11124-2 0  9994
2 61600  87.8875  17.5843 0002451 102.3007 257.8395 13.11415898 86779
ONEWEB-0693             
1 61601U 24188H   26185.88847455  .00000021  00000+0  21496-4 0  9996
2 61601  87.9126   2.3727 0001108 101.3812 258.7444 13.17649719 88217
ONEWEB-0695             
1 61602U 24188J   26185.81703502  .00000332  00000+0  90130-3 0  9999
2 61602  87.8880  17.5658 0002336  92.5479 267.5917 13.11418315 86771
ONEWEB-0697             
1 61603U 24188K   26185.77294995  .00000038  00000+0  72121-4 0  9990
2 61603  87.8878  17.5649 0002384 104.2584 255.8809 13.11414434 86756
ONEWEB-0698             
1 61604U 24188L   26185.82721322  .00000549  00000+0  15136-2 0  9994
2 61604  87.8879  17.5679 0001947 124.3589 235.7723 13.11416516 86781
ONEWEB-0699             
1 61605U 24188M   26185.85381834  .00000124  00000+0  31908-3 0  9993
2 61605  87.8824  32.7459 0002195 102.2220 257.9153 13.10374996 85629
ONEWEB-0700             
1 61606U 24188N   26185.85551836 -.00000047  00000+0 -17090-3 0  9997
2 61606  87.8841  32.6575 0002372  96.3901 263.7496 13.10375984 85615
ONEWEB-0701             
1 61607U 24188P   26185.87251176  .00000648  00000+0  18206-2 0  9998
2 61607  87.8827  32.7422 0002305 105.9818 254.1564 13.10372323 85627
ONEWEB-0702             
1 61608U 24188Q   26185.79668044 -.00000440  00000+0 -12760-2 0  9997
2 61608  87.8900  17.4834 0002691 102.6319 257.5110 13.11416979 86795
ONEWEB-0704             
1 61609U 24188R   26185.86061229  .00000070  00000+0  16285-3 0  9992
2 61609  87.8826  32.7343 0002732  98.4432 261.7005 13.10375802 85609
ONEWEB-0705             
1 61610U 24188S   26185.86572234  .00000638  00000+0  17900-2 0  9991
2 61610  87.8828  32.7391 0002825  82.2310 277.9138 13.10374463 77772
ONEWEB-0706             
1 61611U 24188T   26185.85043220 -.00000004  00000+0 -46975-4 0  9994
2 61611  87.8825  32.7463 0002404  91.3138 268.8265 13.10378354 85695
ONEWEB-0707             
1 61612U 24188U   26185.85721560 -.00000020  00000+0 -94631-4 0  9995
2 61612  87.8830  32.7397 0002385  91.5235 268.6166 13.10376571 85637
ONEWEB-0708             
1 61613U 24188V   26185.87590636  .00000672  00000+0  18876-2 0  9992
2 61613  87.8817  32.7530 0002214  74.8017 285.3355 13.10376586 85615
