OBJECT_NAME,OBJECT_ID,EPOCH,MEAN_MOTION,ECCENTRICITY,INCLINATION,RA_OF_ASC_NODE,ARG_OF_PERICENTER,MEAN_ANOMALY,EPHEMERIS_TYPE,CLASSIFICATION_TYPE,NORAD_CAT_ID,ELEMENT_SET_NO,REV_AT_EPOCH,BSTAR,MEAN_MOTION_DOT,MEAN_MOTION_DDOT
ONEWEB-0721,2023-068R,2026-07-04T16:37:38.830656,13.22470483,.00017878,86.6756,79.9288,78.4027,281.7307,0,U,56725,999,16025,-.10207772E-4,.1E-6,0
ONEWEB-0015,2024-188A,2026-07-04T18:45:14.570496,13.11414943,.00017787,87.8874,17.5893,71.2368,288.8953,0,U,61594,999,8676,-.85512848E-3,-.29E-5,0
ONEWEB-0687,2024-188B,2026-07-04T18:31:44.190336,13.17649647,.00021772,87.9129,2.3769,79.6478,280.4899,0,U,61595,999,8821,.20347582E-3,.92E-6,0
ONEWEB-0688,2024-188C,2026-07-04T17:23:41.231328,13.17649979,.0001823,87.9131,2.3861,51.6993,308.4303,0,U,61596,999,8820,-.14337087E-4,.7E-7,0
ONEWEB-0689,2024-188D,2026-07-04T19:34:04.817856,13.11417849,.00021247,87.8894,17.5432,87.2750,272.8621,0,U,61597,999,8676,.48879001E-3,.186E-5,0
ONEWEB-0690,2024-188E,2026-07-04T19:48:44.551296,13.11417067,.00012985,87.8890,17.5519,101.5645,258.5629,0,U,61598,999,8694,.15805664E-2,.573E-5,0
ONEWEB-0691,2024-188F,2026-07-04T19:41:24.736416,13.11416568,.00018733,87.8901,17.4634,76.7410,283.3927,0,U,61599,999,8679,.97023846E-3,.357E-5,0
ONEWEB-0692,2024-188G,2026-07-04T18:20:50.798112,13.11415898,.00024517,87.8875,17.5843,102.3007,257.8395,0,U,61600,999,8677,.11124042E-2,.407E-5,0
ONEWEB-0693,2024-188H,2026-07-04T21:19:24.201120,13.17649719,.00011086,87.9126,2.3727,101.3812,258.7444,0,U,61601,999,8821,.21495856E-4,.21E-6,0
ONEWEB-0695,2024-188J,2026-07-04T19:36:31.825728,13.11418315,.00023369,87.8880,17.5658,92.5479,267.5917,0,U,61602,999,8677,.90129528E-3,.332E-5,0
ONEWEB-0697,2024-188K,2026-07-04T18:33:02.875680,13.11414434,.00023841,87.8878,17.5649,104.2584,255.8809,0,U,61603,999,8675,.72120756E-4,.38E-6,0
ONEWEB-0698,2024-188L,2026-07-04T19:51:11.222208,13.11416516,.0001947,87.8879,17.5679,124.3589,235.7723,0,U,61604,999,8678,.15136102E-2,.549E-5,0
ONEWEB-0699,2024-188M,2026-07-04T20:29:29.904576,13.10374996,.00021953,87.8824,32.7459,102.2220,257.9153,0,U,61605,999,8562,.31907927E-3,.124E-5,0
ONEWEB-0700,2024-188N,2026-07-04T20:31:56.786304,13.10375984,.00023725,87.8841,32.6575,96.3901,263.7496,0,U,61606,999,8561,-.17089917E-3,-.47E-6,0
ONEWEB-0701,2024-188P,2026-07-04T20:56:25.016064,13.10372323,.0002305,87.8827,32.7422,105.9818,254.1564,0,U,61607,999,8562,.18205551E-2,.648E-5,0
ONEWEB-0702,2024-188Q,2026-07-04T19:07:13.190016,13.11416979,.00026918,87.8900,17.4834,102.6319,257.5110,0,U,61608,999,8679,-.12759958E-2,-.44E-5,0
ONEWEB-0704,2024-188R,2026-07-04T20:39:16.901856,13.10375802,.00027323,87.8826,32.7343,98.4432,261.7005,0,U,61609,999,8560,.16284997E-3,.7E-6,0
ONEWEB-0705,2024-188S,2026-07-04T20:46:38.410176,13.10374463,.00028251,87.8828,32.7391,82.2310,277.9138,0,U,61610,999,7777,.17899612E-2,.638E-5,0
ONEWEB-0706,2024-188T,2026-07-04T20:24:37.342080,13.10378354,.00024047,87.8825,32.7463,91.3138,268.8265,0,U,61611,999,8569,-.46974935E-4,-.4E-7,0
ONEWEB-0707,2024-188U,2026-07-04T20:34:23.427840,13.10376571,.00023859,87.8830,32.7397,91.5235,268.6166,0,U,61612,999,8563,-.94631432E-4,-.2E-6,0
ONEWEB-0708,2024-188V,2026-07-04T21:01:18.309504,13.10376586,.00022142,87.8817,32.7530,74.8017,285.3355,0,U,61613,999,8561,.18875662E-2,.672E-5,0
